FLOCK 4BE-27            
1 60513U 24149AX  26068.75339182  .00011439  00000+0  36576-3 0  9992
2 60513  97.3862 150.6783 0002732 305.8980  54.2008 15.32593322 86906
STARLINK-35747          
1 66207U 25244B   26068.75337721  .00021095  00000+0  72274-3 0  9996
2 66207  53.1587 229.9645 0000853  97.5769 262.5329 15.30181463 21664
